NORAD_CAT_ID,OBJECT_NAME,OBJECT_TYPE,EPOCH,MEAN_MOTION,ECCENTRICITY,INCLINATION,RA_OF_ASC_NODE,ARG_OF_PERICENTER,MEAN_ANOMALY,BSTAR,MEAN_MOTION_DOT,MEAN_MOTION_DDOT,TLE_LINE0,TLE_LINE1,TLE_LINE2,SEMIMAJOR_AXIS,PERIOD,APOGEE,PERIGEE,DECAYED
53970.0,STARLINK-4567,PAYLOAD,2024-01-12 13:42:17,15.08837324,0.0001342,53.2147,152.6724,124.0791,236.0328,9.5185e-06,-1.36e-06,0.0,0 STARLINK-4567,1 53970U 22125G   24012.57103957 -.00000136  00000-0  95185-5 0  9996,2 53970  53.2147 152.6724 0001342 124.0791 236.0328 15.08837324 70573,6917.889,95.438,540.682,538.825,0.0
53970.0,STARLINK-4567,PAYLOAD,2024-01-12 18:28:26,15.08844788,0.0001265,53.2159,151.7815,93.0362,267.0775,8.3893e-05,1.048e-05,0.0,0 STARLINK-4567,1 53970U 22125G   24012.76975466  .00001048  00000-0  83893-4 0  9993,2 53970  53.2159 151.7815 0001265  93.0362 267.0775 15.08844788 70662,6917.866,95.437,540.606,538.856,0.0
53970.0,STARLINK-4567,PAYLOAD,2024-01-13 13:33:04,15.08841926,0.0001277,53.2166,148.2103,97.7782,262.3356,1.4456e-05,-5.8e-07,0.0,0 STARLINK-4567,1 53970U 22125G   24013.56463928 -.00000058  00000-0  14456-4 0  9997,2 53970  53.2166 148.2103 0001277  97.7782 262.3356 15.08841926 70722,6917.875,95.437,540.623,538.856,0.0
53970.0,STARLINK-4567,PAYLOAD,2024-01-14 11:48:28,15.08844384,0.0001723,53.2163,144.0495,113.411,246.7064,2.6634e-05,1.36e-06,0.0,0 STARLINK-4567,1 53970U 22125G   24014.49199723  .00000136  00000-0  26634-4 0  9996,2 53970  53.2163 144.0495 0001723 113.4110 246.7064 15.08844384 70929,6917.867,95.437,540.924,538.54,0.0
53970.0,STARLINK-4567,PAYLOAD,2024-01-14 13:23:51,15.08845982,0.0001287,53.216,143.7531,83.651,276.4629,5.4757e-05,5.84e-06,0.0,0 STARLINK-4567,1 53970U 22125G   24014.55823684  .00000584  00000-0  54757-4 0  9997,2 53970  53.2160 143.7531 0001287  83.6510 276.4629 15.08845982 70876,6917.862,95.437,540.617,538.837,0.0
53970.0,STARLINK-4567,PAYLOAD,2024-01-14 14:59:14,15.08848597,0.000131,53.2161,143.4558,78.9213,281.1926,7.7615e-05,9.48e-06,0.0,0 STARLINK-4567,1 53970U 22125G   24014.62447476  .00000948  00000-0  77615-4 0  9998,2 53970  53.2161 143.4558 0001310  78.9213 281.1926 15.08848597 70886,6917.854,95.437,540.625,538.813,0.0
53970.0,STARLINK-4567,PAYLOAD,2024-01-15 11:39:15,15.08841081,0.0001481,53.216,139.5923,58.1783,301.9353,4.0343e-05,3.54e-06,0.0,0 STARLINK-4567,1 53970U 22125G   24015.48560173  .00000354  00000-0  40343-4 0  9992,2 53970  53.2160 139.5923 0001481  58.1783 301.9353 15.08841081 71076,6917.877,95.437,540.767,538.718,0.0
53970.0,STARLINK-4567,PAYLOAD,2024-01-15 14:50:01,15.08847004,0.0001383,53.2162,138.9923,103.3978,256.7169,2.3084e-05,8e-07,0.0,0 STARLINK-4567,1 53970U 22125G   24015.61807553  .00000080  00000-0  23084-4 0  9992,2 53970  53.2162 138.9923 0001383 103.3978 256.7169 15.08847004 71030,6917.859,95.437,540.681,538.767,0.0
53970.0,STARLINK-4567,PAYLOAD,2024-01-16 11:30:03,15.08837214,0.0001343,53.2166,135.1303,91.3719,268.7427,-3.3913e-05,-8.28e-06,0.0,0 STARLINK-4567,1 53970U 22125G   24016.47920582 -.00000828  00000-0 -33913-4 0  9999,2 53970  53.2166 135.1303 0001343  91.3719 268.7427 15.08837214 71223,6917.889,95.438,540.683,538.825,0.0
53970.0,STARLINK-4567,PAYLOAD,2024-01-16 14:40:49,15.08837644,0.0001336,53.2153,134.5342,105.9994,254.1145,7.5899e-06,-1.67e-06,0.0,0 STARLINK-4567,1 53970U 22125G   24016.61168454 -.00000167  00000-0  75899-5 0  9992,2 53970  53.2153 134.5342 0001336 105.9994 254.1145 15.08837644 71182,6917.888,95.438,540.677,538.828,0.0
53970.0,STARLINK-4567,PAYLOAD,2024-01-17 12:56:13,15.08835692,0.0001388,53.2172,130.3726,95.5587,264.5563,2.3385e-06,-2.51e-06,0.0,0 STARLINK-4567,1 53970U 22125G   24017.53904901 -.00000251  00000-0  23385-5 0  9996,2 53970  53.2172 130.3726 0001388  95.5587 264.5563 15.08835692 71328,6917.894,95.438,540.719,538.798,0.0
53970.0,STARLINK-4567,PAYLOAD,2024-01-18 14:22:23,15.0883999,0.0001414,53.2178,125.6154,91.6924,268.423,0.00016665,2.365e-05,0.0,0 STARLINK-4567,1 53970U 22125G   24018.59888607  .00002365  00000-0  16665-3 0  9995,2 53970  53.2178 125.6154 0001414  91.6924 268.4230 15.08839990 71484,6917.88,95.438,540.724,538.767,0.0
53970.0,STARLINK-4567,PAYLOAD,2024-01-19 11:02:25,15.0883585,0.0001573,53.2179,121.7519,72.9365,287.18,4.038e-05,3.55e-06,0.0,0 STARLINK-4567,1 53970U 22125G   24019.46001633  .00000355  00000-0  40380-4 0  9997,2 53970  53.2179 121.7519 0001573  72.9365 287.1800 15.08835850 71677,6917.893,95.438,540.846,538.67,0.0
53970.0,STARLINK-4567,PAYLOAD,2024-01-19 14:13:11,15.08837116,0.0001678,53.2182,121.156,67.9321,292.185,5.5992e-05,6.03e-06,0.0,0 STARLINK-4567,1 53970U 22125G   24019.59249551  .00000603  00000-0  55992-4 0  9995,2 53970  53.2182 121.1560 0001678  67.9321 292.1850 15.08837116 71637,6917.889,95.438,540.915,538.593,0.0
53970.0,STARLINK-4567,PAYLOAD,2024-01-19 15:48:34,15.08838421,0.0001597,53.2181,120.8581,73.4438,286.673,6.6878e-05,7.76e-06,0.0,0 STARLINK-4567,1 53970U 22125G   24019.65873401  .00000776  00000-0  66878-4 0  9995,2 53970  53.2181 120.8581 0001597  73.4438 286.6730 15.08838421 71642,6917.885,95.438,540.855,538.645,0.0
53970.0,STARLINK-4567,PAYLOAD,2024-01-20 14:03:57,15.08851734,0.0001845,53.2178,116.6939,57.9706,302.1465,9.0857e-05,1.159e-05,0.0,0 STARLINK-4567,1 53970U 22125G   24020.58608707  .00001159  00000-0  90857-4 0  9994,2 53970  53.2178 116.6939 0001845  57.9706 302.1465 15.08851734 71785,6917.845,95.437,540.986,538.433,0.0
53970.0,STARLINK-4567,PAYLOAD,2024-01-21 10:43:59,15.08843684,0.0001796,53.2169,112.83,62.6109,297.5065,4.4322e-05,4.17e-06,0.0,0 STARLINK-4567,1 53970U 22125G   24021.44721267  .00000417  00000-0  44322-4 0  9999,2 53970  53.2169 112.8300 0001796  62.6109 297.5065 15.08843684 71979,6917.869,95.437,540.977,538.492,0.0
53970.0,STARLINK-4567,PAYLOAD,2024-01-21 12:19:22,15.08844232,0.0002043,53.2173,112.5324,56.6205,303.4983,5.6491e-05,6.11e-06,0.0,0 STARLINK-4567,1 53970U 22125G   24021.51345200  .00000611  00000-0  56491-4 0  9992,2 53970  53.2173 112.5324 0002043  56.6205 303.4983 15.08844232 71924,6917.867,95.437,541.146,538.319,0.0
53970.0,STARLINK-4567,PAYLOAD,2024-01-22 05:48:36,15.08841176,0.0002113,53.2171,109.266,50.8713,309.2467,8.5083e-05,1.066e-05,0.0,0 STARLINK-4567,1 53970U 22125G   24022.24209203  .00001066  00000-0  85083-4 0  9999,2 53970  53.2171 109.2660 0002113  50.8713 309.2467 15.08841176 72034,6917.877,95.437,541.204,538.28,0.0
53970.0,STARLINK-4567,PAYLOAD,2024-01-22 12:10:08,15.0884515,0.0001629,53.2182,108.0719,96.2276,263.8902,1.3086e-05,-8e-07,0.0,0 STARLINK-4567,1 53970U 22125G   24022.50704861 -.00000080  00000-0  13086-4 0  9998,2 53970  53.2182 108.0719 0001629  96.2276 263.8902 15.08845150 72133,6917.865,95.437,540.857,538.603,0.0
53970.0,STARLINK-4567,PAYLOAD,2024-01-23 10:25:32,15.08847763,0.000155,53.2182,103.9094,97.279,262.8378,-6.0877e-05,-1.257e-05,0.0,0 STARLINK-4567,1 53970U 22125G   24023.43440832 -.00001257  00000-0 -60877-4 0  9994,2 53970  53.2182 103.9094 0001550  97.2790 262.8378 15.08847763 72215,6917.857,95.437,540.794,538.649,0.0
53970.0,STARLINK-4567,PAYLOAD,2024-01-24 10:16:20,15.08833819,0.0001627,53.2185,99.4486,105.7085,254.4086,-2.179e-05,-6.35e-06,0.0,0 STARLINK-4567,1 53970U 22125G   24024.42801686 -.00000635  00000-0 -21790-4 0  9992,2 53970  53.2185  99.4486 0001627 105.7085 254.4086 15.08833819 72422,6917.899,95.438,540.89,538.639,0.0
53970.0,STARLINK-4567,PAYLOAD,2024-01-25 11:42:30,15.08837026,0.0001451,53.2185,94.6918,95.8929,264.2229,7.5406e-05,9.12e-06,0.0,0 STARLINK-4567,1 53970U 22125G   24025.48785516  .00000912  00000-0  75406-4 0  9991,2 53970  53.2185  94.6918 0001451  95.8929 264.2229 15.08837026 72589,6917.889,95.438,540.758,538.751,0.0
53970.0,STARLINK-4567,PAYLOAD,2024-01-26 11:33:17,15.08823197,0.0001453,53.2172,90.2267,87.0025,273.1133,0.00032896,4.949e-05,0.0,0 STARLINK-4567,1 53970U 22125G   24026.48145805  .00004949  00000-0  32896-3 0  9992,2 53970  53.2172  90.2267 0001453  87.0025 273.1133 15.08823197 72730,6917.932,95.439,540.802,538.792,0.0
53970.0,STARLINK-4567,PAYLOAD,2024-01-27 11:24:05,15.0879092,0.0002113,53.2183,85.7665,62.6017,297.519,0.00068781,0.00010661,0.0,0 STARLINK-4567,1 53970U 22125G   24027.47506906  .00010661  00000-0  68781-3 0  9995,2 53970  53.2183  85.7665 0002113  62.6017 297.5190 15.08790920 72883,6918.03,95.441,541.357,538.434,0.0
53970.0,STARLINK-4567,PAYLOAD,2024-01-28 11:14:53,15.08839399,0.0001953,53.2182,81.3079,60.9771,299.1416,4.3903e-05,4.11e-06,0.0,0 STARLINK-4567,1 53970U 22125G   24028.46867348  .00000411  00000-0  43903-4 0  9997,2 53970  53.2182  81.3079 0001953  60.9771 299.1416 15.08839399 73033,6917.882,95.438,541.098,538.396,0.0
53970.0,STARLINK-4567,PAYLOAD,2024-01-28 12:50:16,15.08841005,0.0001919,53.2183,81.0076,62.0303,298.0883,5.577e-05,6e-06,0.0,0 STARLINK-4567,1 53970U 22125G   24028.53491184  .00000600  00000-0  55770-4 0  9991,2 53970  53.2183  81.0076 0001919  62.0303 298.0883 15.08841005 72980,6917.877,95.437,541.07,538.415,0.0
53970.0,STARLINK-4567,PAYLOAD,2024-01-29 09:30:15,15.08861025,0.0001987,53.2185,77.1398,64.7399,295.3799,0.00019038,2.745e-05,0.0,0 STARLINK-4567,1 53970U 22125G   24029.39601158  .00002745  00000-0  19038-3 0  9998,2 53970  53.2185  77.1398 0001987  64.7399 295.3799 15.08861025 73176,6917.816,95.436,541.056,538.307,0.0
53970.0,STARLINK-4567,PAYLOAD,2024-01-29 12:41:01,15.08858138,0.0001842,53.2187,76.5443,71.0288,289.0904,0.00027037,4.02e-05,0.0,0 STARLINK-4567,1 53970U 22125G   24029.52848964  .00004020  00000-0  27037-3 0  9997,2 53970  53.2187  76.5443 0001842  71.0288 289.0904 15.08858138 73135,6917.825,95.436,540.964,538.416,0.0
53970.0,STARLINK-4567,PAYLOAD,2024-01-30 09:21:03,15.08848819,0.0001744,53.2192,72.6676,113.4088,246.7088,3.3033e-05,2.38e-06,0.0,0 STARLINK-4567,1 53970U 22125G   24030.38961984  .00000238  00000-0  33033-4 0  9992,2 53970  53.2192  72.6676 0001744 113.4088 246.7088 15.08848819 73325,6917.853,95.437,540.925,538.512,0.0
